satname,norad_id,inclination_deg,eccentricity,mean_motion_rev_per_day,perigee_km,apogee_km,l1,l2
STARLINK-1234,45190,53.0336,0.0001623,15.80867495,326.8978025758106,329.07461016859907,1 45190U 20012N   26173.83335648  .00093626  00000+0  47280-3 0  9992,2 45190  53.0336 165.4423 0001623  91.5367 329.5573 15.80867495  6024
STARLINK-1269,45197,53.1542,0.0001721,15.36265039,455.9892044466169,458.34191558777457,1 45197U 20012V   26173.56426276  .00040109  00000+0  11231-2 0  9991,2 45197  53.1542 270.8716 0001721 337.2380  22.8546 15.36265039350999
STARLINK-1154,45198,53.0402,0.0003842,15.64867979,371.0244521414488,376.21250104966475,1 45198U 20012W   26173.41663867  .00030562  00000+0  31138-3 0  9996,2 45198  53.0402 223.2463 0003842  24.2256 335.8938 15.64867979351597
STARLINK-1199,45201,53.154,0.0004309,15.36271467,454.2011696969148,460.09181701148736,1 45201U 20012Z   26173.66539522  .00034540  00000+0  96899-3 0  9993,2 45201  53.1540 254.6657 0004309 333.0980  26.9799 15.36271467351259
STARLINK-1209,45206,53.0361,0.0001221,15.70645443,356.2288328083332,357.8735657665993,1 45206U 20012AE  26173.83335648  .01359468  00000+0  95791-2 0  9999,2 45206  53.0361 181.1408 0001221  81.5332  90.1519 15.70645443  5940
STARLINK-1231,45212,53.0379,0.0002275,15.28761745,477.9526906961755,481.07292135791886,1 45212U 20012AL  26172.93565737  .00031028  00000+0  11028-2 0  9999,2 45212  53.0379 253.9271 0002275  65.0198 295.1037 15.28761745351133
STARLINK-1271,45217,53.1547,0.0004093,15.36430849,453.8762906814163,459.4712667848871,1 45217U 20012AR  26173.46598512  .00034383  00000+0  95977-3 0  9993,2 45217  53.1547 255.7045 0004093 344.7546  15.3333 15.36430849351227
STARLINK-1191,45222,53.1533,0.0003264,15.40525985,442.3289581796289,446.7828120950462,1 45222U 20012AW  26173.47243069  .00039491  00000+0  96293-3 0  9991,2 45222  53.1533 228.2498 0003264 317.2734  42.8017 15.40525985351616
STARLINK-1212,45223,53.0385,0.0001378,15.70734327,355.8690377919147,357.7251856331022,1 45223U 20012AX  26173.83335648  .00012168  00000+0  10081-3 0  9990,2 45223  53.0385 196.5748 0001378  84.7533  72.8151 15.70734327  6000
STARLINK-1215,45225,53.1548,0.0004915,15.36586258,452.8538434238235,459.5720094014878,1 45225U 20012AZ  26173.52898881  .00035667  00000+0  98998-3 0  9993,2 45225  53.1548 229.6602 0004915 342.8808  17.2029 15.36586258351554
STARLINK-1221,45227,53.0637,0.0003404,15.45233119,428.37545842116924,433.01091001058376,1 45227U 20012BB  26173.08468925  .00011739  00000+0  25157-3 0  9999,2 45227  53.0637 133.6124 0003404  12.3753 347.7336 15.45233119352836
STARLINK-1222,45228,53.0511,0.0003631,15.5626334,396.022149796996,400.943331052491,1 45228U 20012BC  26173.34194892  .00026016  00000+0  36940-3 0  9994,2 45228  53.0511 198.5963 0003631  39.8967 320.2310 15.56263340351885
STARLINK-1226,45229,53.1545,0.0005086,15.45722411,425.79399694919266,432.7184773500221,1 45229U 20012BD  26173.53683966  .00045036  00000+0  92031-3 0  9997,2 45229  53.1545 224.7207 0005086 342.7358  17.3475 15.45722411351561
STARLINK-1227,45230,53.1519,0.0004965,15.45803318,425.63895064420376,432.3984562577298,1 45230U 20012BE  26173.41643126  .00045541  00000+0  92792-3 0  9995,2 45230  53.1519 225.3872 0004965 334.7468  25.3296 15.45803318351664
STARLINK-1246,45235,53.1539,0.0003005,15.36304878,454.9934192447472,459.1013650644327,1 45235U 20012BK  26173.76574701  .00035630  00000+0  99813-3 0  9999,2 45235  53.1539 269.5521 0003005 309.1765  50.8971 15.36304878351088
STARLINK-1270,45237,53.0387,0.000172,15.69838695,358.19965052518364,360.51734897709866,1 45237U 20012BM  26173.83335648  .00012659  00000+0  10861-3 0  9996,2 45237  53.0387 198.3595 0001720  88.3615 151.8513 15.69838695  5728
STARLINK-1279,45360,53.0343,0.0002039,15.81305638,325.3802827572681,328.1145346191324,1 45360U 20019A   26173.84698129  .00100851  00000+0  49842-3 0  9990,2 45360  53.0343 299.9579 0002039  40.7310 319.3863 15.81305638347172
STARLINK-1301,45361,53.0335,0.0002982,15.83193207,319.4192570251398,323.4148710689369,1 45361U 20019B   26173.34410541  .00100785  00000+0  45609-3 0  9999,2 45361  53.0335 304.6707 0002982 338.5959  21.4938 15.83193207347077
STARLINK-1262,45366,53.1551,0.0003786,15.35300248,457.43989140068516,462.61775056033093,1 45366U 20019G   26173.35577740  .00035290  00000+0  10209-2 0  9995,2 45366  53.1551  38.0264 0003786 133.9381 226.1935 15.35300248345798
STARLINK-1273,45367,53.0443,0.0003062,15.58948743,388.62573901385895,392.7709737861196,1 45367U 20019H   26173.57321346  .00071301  00000+0  89982-3 0  9997,2 45367  53.0443  10.0699 0003062 112.0495 248.0842 15.58948743346188
STARLINK-1277,45369,53.0413,0.0001096,15.68484403,362.49736893041063,363.97507794098874,1 45369U 20019K   26173.83335648 -.00005676  00000+0 -44281-4 0  9996,2 45369  53.0413   1.9837 0001096  90.3850 251.9155 15.68484403  6001
STARLINK-1281,45370,53.1574,0.0004131,15.36105154,454.8159925188347,460.46371135390564,1 45370U 20019L   26173.35927657  .00037279  00000+0  10502-2 0  9991,2 45370  53.1574  37.5540 0004131 118.3324 241.8096 15.36105154345802
STARLINK-1300,45374,53.1574,0.0003865,15.36653632,453.3717595834496,458.65455765606293,1 45374U 20019Q   26172.91093982  .00036657  00000+0  10150-2 0  9999,2 45374  53.1574  39.5075 0003865 130.3802 229.7540 15.36653632345739
STARLINK-1302,45375,53.0458,0.0003699,15.68727098,360.0475314477826,365.03428496427387,1 45375U 20019R   26173.23629733  .00043883  00000+0  38008-3 0  9997,2 45375  53.0458   0.7561 0003699 110.6860 249.4553 15.68727098346287
STARLINK-1304,45376,53.0425,0.0002668,15.6476449,372.11471992205134,375.71761549234,1 45376U 20019S   26172.95667503  .00038995  00000+0  39705-3 0  9996,2 45376  53.0425   3.8732 0002668 126.9626 233.1633 15.64764490346216
STARLINK-1305,45377,53.0381,0.0003105,15.73342199,347.2639029168731,351.4416740755305,1 45377U 20019T   26173.72294823  .00059401  00000+0  42195-3 0  9996,2 45377  53.0381 337.7124 0003105 298.5244  61.5461 15.73342199346659
STARLINK-1319,45379,53.0367,6.47e-05,15.80119662,329.6679153699024,330.53596148853467,1 45379U 20019V   26173.82178659  .00086787  00000+0  45417-3 0  9994,2 45379  53.0367 328.2286 0000647  82.0540 278.0554 15.80119662346790
STARLINK-1266,45383,53.0455,9.55e-05,15.67177721,366.3387603331812,367.6270782377651,1 45383U 20019Z   26173.45991002  .00039815  00000+0  36801-3 0  9990,2 45383  53.0455 346.0884 0000955 279.5751  80.5156 15.67177721346502
STARLINK-1267,45384,53.0429,0.0001779,15.7128304,354.03120205498817,356.42693370193956,1 45384U 20019AA  26173.83335648 -.00060364  00000+0 -46515-3 0  9999,2 45384  53.0429 335.4786 0001779 100.5293  26.1376 15.71283040  5909
STARLINK-1272,45386,53.0396,0.0001852,15.7209155,351.6736790057321,354.16686261884115,1 45386U 20019AC  26172.83768759  .00119452  00000+0  88396-3 0  9997,2 45386  53.0396 318.7161 0001852 107.8069 252.3151 15.72091550346836
STARLINK-1274,45387,53.0201,0.0005205,15.64468548,371.2527534299761,378.2825271605234,1 45387U 20019AD  26173.12334348  .00080166  00000+0  81547-3 0  9994,2 45387  53.0201 317.2686 0005205 215.0785 144.9887 15.64468548346873
STARLINK-1280,45388,53.0353,0.0002082,15.85426594,313.73028417853584,316.51735798443497,1 45388U 20019AE  26172.70517201  .00113669  00000+0  46149-3 0  9993,2 45388  53.0353 325.5928 0002082 333.3052  26.7864 15.85426594346717
STARLINK-1283,45389,53.0374,0.0001655,15.7338882,348.10651568058256,350.333270812248,1 45389U 20019AF  26173.66472061  .00054845  00000+0  38941-3 0  9995,2 45389  53.0374 313.5033 0001655 246.8866 113.1977 15.73388820346982
STARLINK-1284,45390,53.0412,0.0003278,15.71528958,352.31964297099785,356.7335772337801,1 45390U 20019AG  26172.74462999  .00051351  00000+0  39488-3 0  9990,2 45390  53.0412 342.1404 0003278  61.3283 298.8063 15.71528958346492
STARLINK-1297,45395,53.0416,0.0001119,15.74333067,345.7771964806261,347.2821768851072,1 45395U 20019AM  26173.83335648  .00014618  00000+0  10328-3 0  9993,2 45395  53.0416 335.8882 0001119  86.8725 180.2411 15.74333067  5968
STARLINK-1307,45397,53.0534,8.94e-05,15.57601134,393.9964953392673,395.2074610685695,1 45397U 20019AP  26172.74207863  .00027234  00000+0  36767-3 0  9994,2 45397  53.0534 348.4873 0000894 170.0196 190.0833 15.57601134346237
STARLINK-1255,45399,53.0344,0.0002255,15.67127026,365.60732643583015,368.6494411239155,1 45399U 20019AR  26173.65584519  .00042351  00000+0  39178-3 0  9999,2 45399  53.0344 310.8841 0002255 166.1482 193.9595 15.67127026346829
STARLINK-1260,45404,53.1569,0.0004123,15.39170505,445.7462809320332,451.3755760438653,1 45404U 20019AW  26172.91864551  .00028936  00000+0  74132-3 0  9993,2 45404  53.1569   2.0204 0004123 136.9113 223.2215 15.39170505345971
STARLINK-1263,45405,53.1592,0.0002716,15.36240476,455.38193177882204,459.09490770682714,1 45405U 20019AX  26173.24148157  .00029553  00000+0  83213-3 0  9994,2 45405  53.1592   2.0630 0002716 160.7627 199.3479 15.36240476346004
STARLINK-1265,45406,53.1572,0.0002788,15.39582737,445.4393391129852,449.2452263610394,1 45406U 20019AY  26173.23264762  .00043140  00000+0  10836-2 0  9993,2 45406  53.1572   0.4967 0002788 127.1642 232.9618 15.39582737346024
STARLINK-1278,45408,53.0392,0.0001789,15.75301705,342.57023215227673,344.9753314722102,1 45408U 20019BA  26173.83335648  .00001208  00000+0  12027-4 0  9998,2 45408  53.0392 334.7034 0001789  71.8454 102.0368 15.75301705  6003
STARLINK-1296,45412,53.1555,0.0003361,15.39728658,444.6171407938473,449.20493808595893,1 45412U 20019BE  26172.94596930  .00052853  00000+0  13173-2 0  9990,2 45412  53.1555   1.5198 0003361 124.4408 235.6915 15.39728658345986
STARLINK-1309,45414,53.0602,0.0001485,15.73982635,346.5290097334155,348.52653217038824,1 45414U 20019BG  26173.83335648  .00015617  00000+0  11170-3 0  9991,2 45414  53.0602 328.8044 0001485  71.8658 287.1734 15.73982635  6016
